start=new Date('2023-01-20T00:00:00.000Z').valueOf();
sats=[{"MEAN_MOTION_DOT":"0.00000155","APOAPSIS":"540.518","REV_AT_EPOCH":"2543","TIME_SYSTEM":"UTC","ARG_OF_PERICENTER":"88.8876","GP_ID":"223507478","NORAD_CAT_ID":"53409","TLE_LINE1":"1 53409U 22097X   23019.61477908  .00000155  00000-0  27842-4 0  9996","PERIOD":"95.438","OBJECT_TYPE":"PAYLOAD","REF_FRAME":"TEME","ECCENTRICITY":"0.00010940","INCLINATION":"53.2158","MEAN_MOTION":"15.08834678","MEAN_MOTION_DDOT":"0.0000000000000","BSTAR":"0.00002784200000","OBJECT_NAME":"STARLINK-4490","EPHEMERIS_TYPE":"0","RCS_SIZE":"LARGE","COUNTRY_CODE":"US","CLASSIFICATION_TYPE":"U","MEAN_ANOMALY":"271.2241","EPOCH":"2023-01-19T14:45:16.912512","ELEMENT_SET_NO":"999","SEMIMAJOR_AXIS":"6917.897","RA_OF_ASC_NODE":"204.7515","DECAY_DATE":null,"CENTER_NAME":"EARTH","OBJECT_ID":"2022-097X","MEAN_ELEMENT_THEORY":"SGP4","FILE":"3755245","TLE_LINE2":"2 53409  53.2158 204.7515 0001094  88.8876 271.2241 15.08834678 25433","PERIAPSIS":"539.005","LAUNCH_DATE":"2022-08-10","SITE":"AFETR"},{"EPOCH":"2023-01-19T19:35:22.386912","MEAN_ANOMALY":"295.8603","ELEMENT_SET_NO":"999","SEMIMAJOR_AXIS":"6917.892","RA_OF_ASC_NODE":"213.6509","DECAY_DATE":null,"OBJECT_NAME":"STARLINK-4492","MEAN_MOTION_DDOT":"0.0000000000000","BSTAR":"0.00013016000000","RCS_SIZE":"LARGE","EPHEMERIS_TYPE":"0","COUNTRY_CODE":"US","CLASSIFICATION_TYPE":"U","LAUNCH_DATE":"2022-08-10","PERIAPSIS":"538.635","SITE":"AFETR","CENTER_NAME":"EARTH","FILE":"3755245","TLE_LINE2":"2 53410  53.2157 213.6509 0001622  64.2556 295.8603 15.08836301 25323","MEAN_ELEMENT_THEORY":"SGP4","OBJECT_ID":"2022-097Y","MEAN_MOTION_DOT":"0.00001784","REV_AT_EPOCH":"2532","APOAPSIS":"540.879","TIME_SYSTEM":"UTC","ARG_OF_PERICENTER":"64.2556","REF_FRAME":"TEME","INCLINATION":"53.2157","ECCENTRICITY":"0.00016220","MEAN_MOTION":"15.08836301","GP_ID":"223507486","TLE_LINE1":"1 53410U 22097Y   23019.81623133  .00001784  00000-0  13016-3 0  9999","NORAD_CAT_ID":"53410","PERIOD":"95.438","OBJECT_TYPE":"PAYLOAD"},{"TIME_SYSTEM":"UTC","ARG_OF_PERICENTER":"46.5026","MEAN_MOTION_DOT":"0.00011490","APOAPSIS":"541.513","REV_AT_EPOCH":"2577","MEAN_MOTION":"15.08860480","REF_FRAME":"TEME","INCLINATION":"53.2156","ECCENTRICITY":"0.00026450","PERIOD":"95.436","OBJECT_TYPE":"PAYLOAD","GP_ID":"223499988","TLE_LINE1":"1 53411U 22097Z   23019.55864114  .00011490  00000-0  73842-3 0  9995","NORAD_CAT_ID":"53411","ELEMENT_SET_NO":"999","SEMIMAJOR_AXIS":"6917.818","DECAY_DATE":null,"RA_OF_ASC_NODE":"214.8046","MEAN_ANOMALY":"313.6185","EPOCH":"2023-01-19T13:24:26.594496","COUNTRY_CODE":"US","CLASSIFICATION_TYPE":"U","OBJECT_NAME":"STARLINK-4497","MEAN_MOTION_DDOT":"0.0000000000000","BSTAR":"0.00073842000000","RCS_SIZE":"LARGE","EPHEMERIS_TYPE":"0","LAUNCH_DATE":"2022-08-10","PERIAPSIS":"537.853","SITE":"AFETR","CENTER_NAME":"EARTH","TLE_LINE2":"2 53411  53.2156 214.8046 0002645  46.5026 313.6185 15.08860480 25771","FILE":"3754973","OBJECT_ID":"2022-097Z","MEAN_ELEMENT_THEORY":"SGP4"},{"ARG_OF_PERICENTER":"54.2121","TIME_SYSTEM":"UTC","REV_AT_EPOCH":"2577","APOAPSIS":"541.002","MEAN_MOTION_DOT":"0.00001475","OBJECT_TYPE":"PAYLOAD","PERIOD":"95.437","TLE_LINE1":"1 53412U 22097AA  23019.54023119  .00001475  00000-0  11076-3 0  9990","NORAD_CAT_ID":"53412","GP_ID":"223500235","MEAN_MOTION":"15.08841464","INCLINATION":"53.2144","ECCENTRICITY":"0.00018230","REF_FRAME":"TEME","CLASSIFICATION_TYPE":"U","COUNTRY_CODE":"US","RCS_SIZE":"LARGE","EPHEMERIS_TYPE":"0","OBJECT_NAME":"STARLINK-4496","MEAN_MOTION_DDOT":"0.0000000000000","BSTAR":"0.00011076000000","RA_OF_ASC_NODE":"214.8950","DECAY_DATE":null,"SEMIMAJOR_AXIS":"6917.876","ELEMENT_SET_NO":"999","EPOCH":"2023-01-19T12:57:55.974816","MEAN_ANOMALY":"305.9041","TLE_LINE2":"2 53412  53.2144 214.8950 0001823  54.2121 305.9041 15.08841464 25778","FILE":"3754973","OBJECT_ID":"2022-097AA","MEAN_ELEMENT_THEORY":"SGP4","CENTER_NAME":"EARTH","SITE":"AFETR","LAUNCH_DATE":"2022-08-10","PERIAPSIS":"538.480"},{"ECCENTRICITY":"0.00016950","INCLINATION":"53.2146","REF_FRAME":"TEME","MEAN_MOTION":"15.08845254","NORAD_CAT_ID":"53413","TLE_LINE1":"1 53413U 22097AB  23019.81255015  .00001900  00000-0  13741-3 0  9997","GP_ID":"223506996","OBJECT_TYPE":"PAYLOAD","PERIOD":"95.437","REV_AT_EPOCH":"2532","APOAPSIS":"540.902","MEAN_MOTION_DOT":"0.00001900","ARG_OF_PERICENTER":"90.7162","TIME_SYSTEM":"UTC","SITE":"AFETR","PERIAPSIS":"538.557","LAUNCH_DATE":"2022-08-10","OBJECT_ID":"2022-097AB","MEAN_ELEMENT_THEORY":"SGP4","TLE_LINE2":"2 53413  53.2146 213.6733 0001695  90.7162 269.4025 15.08845254 25322","FILE":"3755246","CENTER_NAME":"EARTH","EPOCH":"2023-01-19T19:30:04.332960","MEAN_ANOMALY":"269.4025","DECAY_DATE":null,"RA_OF_ASC_NODE":"213.6733","ELEMENT_SET_NO":"999","SEMIMAJOR_AXIS":"6917.864","EPHEMERIS_TYPE":"0","RCS_SIZE":"LARGE","BSTAR":"0.00013741000000","MEAN_MOTION_DDOT":"0.0000000000000","OBJECT_NAME":"STARLINK-4500","CLASSIFICATION_TYPE":"U","COUNTRY_CODE":"US"},{"EPOCH":"2023-01-19T12:52:38.482464","MEAN_ANOMALY":"324.9742","ELEMENT_SET_NO":"999","SEMIMAJOR_AXIS":"6917.838","DECAY_DATE":null,"RA_OF_ASC_NODE":"214.9146","OBJECT_NAME":"STARLINK-4304","BSTAR":"0.00069529000000","MEAN_MOTION_DDOT":"0.0000000000000","RCS_SIZE":"LARGE","EPHEMERIS_TYPE":"0","COUNTRY_CODE":"US","CLASSIFICATION_TYPE":"U","LAUNCH_DATE":"2022-08-10","PERIAPSIS":"538.058","SITE":"AFETR","CENTER_NAME":"EARTH","FILE":"3754973","TLE_LINE2":"2 53414  53.2145 214.9146 0002378  35.1407 324.9742 15.08853749 25767","MEAN_ELEMENT_THEORY":"SGP4","OBJECT_ID":"2022-097AC","MEAN_MOTION_DOT":"0.00010799","APOAPSIS":"541.348","REV_AT_EPOCH":"2576","TIME_SYSTEM":"UTC","ARG_OF_PERICENTER":"35.1407","REF_FRAME":"TEME","INCLINATION":"53.2145","ECCENTRICITY":"0.00023780","MEAN_MOTION":"15.08853749","GP_ID":"223501218","TLE_LINE1":"1 53414U 22097AC  23019.53655651  .00010799  00000-0  69529-3 0  9998","NORAD_CAT_ID":"53414","PERIOD":"95.437","OBJECT_TYPE":"PAYLOAD"},{"MEAN_MOTION_DOT":"0.00002320","APOAPSIS":"540.886","REV_AT_EPOCH":"2574","TIME_SYSTEM":"UTC","ARG_OF_PERICENTER":"65.9258","REF_FRAME":"TEME","ECCENTRICITY":"0.00016780","INCLINATION":"53.2162","MEAN_MOTION":"15.08846556","GP_ID":"223499491","NORAD_CAT_ID":"53415","TLE_LINE1":"1 53415U 22097AD  23019.53286539  .00002320  00000-0  16380-3 0  9992","PERIOD":"95.437","OBJECT_TYPE":"PAYLOAD","MEAN_ANOMALY":"294.1909","EPOCH":"2023-01-19T12:47:19.569696","ELEMENT_SET_NO":"999","SEMIMAJOR_AXIS":"6917.860","DECAY_DATE":null,"RA_OF_ASC_NODE":"214.9306","MEAN_MOTION_DDOT":"0.0000000000000","BSTAR":"0.00016380000000","OBJECT_NAME":"STARLINK-4479","EPHEMERIS_TYPE":"0","RCS_SIZE":"LARGE","COUNTRY_CODE":"US","CLASSIFICATION_TYPE":"U","PERIAPSIS":"538.565","LAUNCH_DATE":"2022-08-10","SITE":"AFETR","CENTER_NAME":"EARTH","MEAN_ELEMENT_THEORY":"SGP4","OBJECT_ID":"2022-097AD","FILE":"3754973","TLE_LINE2":"2 53415  53.2162 214.9306 0001678  65.9258 294.1909 15.08846556 25741"},{"MEAN_MOTION":"15.08834780","INCLINATION":"53.2163","ECCENTRICITY":"0.00013980","REF_FRAME":"TEME","OBJECT_TYPE":"PAYLOAD","PERIOD":"95.438","TLE_LINE1":"1 53416U 22097AE  23019.78775201  .00002486  00000-0  17427-3 0  9995","NORAD_CAT_ID":"53416","GP_ID":"223506993","ARG_OF_PERICENTER":"94.2625","TIME_SYSTEM":"UTC","REV_AT_EPOCH":"2532","APOAPSIS":"540.728","MEAN_MOTION_DOT":"0.00002486","SITE":"AFETR","LAUNCH_DATE":"2022-08-10","PERIAPSIS":"538.794","TLE_LINE2":"2 53416  53.2163 213.7856 0001398  94.2625 265.8526 15.08834780 25322","FILE":"3755246","OBJECT_ID":"2022-097AE","MEAN_ELEMENT_THEORY":"SGP4","CENTER_NAME":"EARTH","RA_OF_ASC_NODE":"213.7856","DECAY_DATE":null,"SEMIMAJOR_AXIS":"6917.896","ELEMENT_SET_NO":"999","EPOCH":"2023-01-19T18:54:21.773664","MEAN_ANOMALY":"265.8526","CLASSIFICATION_TYPE":"U","COUNTRY_CODE":"US","RCS_SIZE":"LARGE","EPHEMERIS_TYPE":"0","OBJECT_NAME":"STARLINK-4480","BSTAR":"0.00017427000000","MEAN_MOTION_DDOT":"0.0000000000000"},{"MEAN_ELEMENT_THEORY":"SGP4","OBJECT_ID":"2022-097AF","TLE_LINE2":"2 53417  53.2160 213.7516 0002385  52.3716 307.7492 15.08839659 25324","FILE":"3755246","CENTER_NAME":"EARTH","SITE":"AFETR","PERIAPSIS":"538.097","LAUNCH_DATE":"2022-08-10","EPHEMERIS_TYPE":"0","RCS_SIZE":"LARGE","MEAN_MOTION_DDOT":"0.0000000000000","BSTAR":"0.00013666000000","OBJECT_NAME":"STARLINK-4484","CLASSIFICATION_TYPE":"U","COUNTRY_CODE":"US","EPOCH":"2023-01-19T19:03:34.894368","MEAN_ANOMALY":"307.7492","RA_OF_ASC_NODE":"213.7516","DECAY_DATE":null,"ELEMENT_SET_NO":"999","SEMIMAJOR_AXIS":"6917.881","NORAD_CAT_ID":"53417","TLE_LINE1":"1 53417U 22097AF  23019.79415387  .00001887  00000-0  13666-3 0  9998","GP_ID":"223506998","OBJECT_TYPE":"PAYLOAD","PERIOD":"95.438","ECCENTRICITY":"0.00023850","INCLINATION":"53.2160","REF_FRAME":"TEME","MEAN_MOTION":"15.08839659","APOAPSIS":"541.396","REV_AT_EPOCH":"2532","MEAN_MOTION_DOT":"0.00001887","ARG_OF_PERICENTER":"52.3716","TIME_SYSTEM":"UTC"},{"MEAN_MOTION_DOT":"0.00001405","REV_AT_EPOCH":"2587","APOAPSIS":"540.846","TIME_SYSTEM":"UTC","ARG_OF_PERICENTER":"67.4142","GP_ID":"223500728","TLE_LINE1":"1 53418U 22097AG  23019.22461713  .00001405  00000-0  10633-3 0  9998","NORAD_CAT_ID":"53418","PERIOD":"95.437","OBJECT_TYPE":"PAYLOAD","REF_FRAME":"TEME","INCLINATION":"53.2168","ECCENTRICITY":"0.00015950","MEAN_MOTION":"15.08840892","OBJECT_NAME":"STARLINK-4481","BSTAR":"0.00010633000000","MEAN_MOTION_DDOT":"0.0000000000000","RCS_SIZE":"LARGE","EPHEMERIS_TYPE":"0","COUNTRY_CODE":"US","CLASSIFICATION_TYPE":"U","EPOCH":"2023-01-19T05:23:26.920032","MEAN_ANOMALY":"292.7019","ELEMENT_SET_NO":"999","SEMIMAJOR_AXIS":"6917.878","RA_OF_ASC_NODE":"205.8811","DECAY_DATE":null,"CENTER_NAME":"EARTH","FILE":"3754973","TLE_LINE2":"2 53418  53.2168 205.8811 0001595  67.4142 292.7019 15.08840892 25874","MEAN_ELEMENT_THEORY":"SGP4","OBJECT_ID":"2022-097AG","LAUNCH_DATE":"2022-08-10","PERIAPSIS":"538.639","SITE":"AFETR"}];
